OPS 6582 (TRANSIT 5B-5) 
1 00965U 64083D   21292.50033623  .00000044  00000-0  49455-4 0  9998
2 00965  90.0279 194.7486 0039682 211.2462 322.7173 13.56761895812843
OSCAR 7 (AO-7)          
1 07530U 74089B   21292.59274308 -.00000039  00000-0  44684-4 0  9990
2 07530 101.8715 267.0321 0012295 142.2961 332.7989 12.53650907147286
UOSAT 2 (UO-11)         
1 14781U 84021B   21292.78690559  .00000203  00000-0  30894-4 0  9994
2 14781  97.6007 286.5545 0009384  40.8543 319.3373 14.83344232 25364
NOAA 9                  
1 15427U 84123A   21292.80973459  .00000026  00000-0  36050-4 0  9994
2 15427  99.0103 256.8819 0015619 125.3155 295.0494 14.16147888902783
LUSAT (LO-19)           
1 20442U 90005G   21292.63372980  .00000015  00000-0  21983-4 0  9993
2 20442  98.7571 249.3156 0012187 151.3535 208.8320 14.33001595658679
ITAMSAT (IO-26)         
1 22826U 93061D   21292.29507725  .00000025  00000-0  27326-4 0  9993
2 22826  98.9071 312.8189 0009396  27.7214 332.4466 14.30468525463939
RADIO ROSTO (RS-15)     
1 23439U 94085A   21292.60317235 -.00000037  00000-0  15882-3 0  9998
2 23439  64.8161 175.1657 0164492 313.7953  44.9464 11.27570369104331
JAS-2 (FO-29)           
1 24278U 96046B   21292.74820101 -.00000031  00000-0  39027-5 0  9998
2 24278  98.5527 344.1798 0350262 187.4184 172.1693 13.53106686243308
NOAA 15                 
1 25338U 98030A   21292.69609960  .00000045  00000-0  37098-4 0  9992
2 25338  98.6728 320.0544 0009303 279.8655  80.1474 14.26064088218956
TECHSAT 1B (GO-32)      
1 25397U 98043D   21292.79883888 -.00000003  00000-0  18076-4 0  9995
2 25397  98.7834 238.0727 0002382  85.1730 274.9720 14.23718562209400
ISS (ZARYA)             
1 25544U 98067A   21292.89044074  .00004617  00000-0  92733-4 0  9998
2 25544  51.6431  86.1166 0004166 125.7553 304.8177 15.48743137307929
ORSTED                  
1 25635U 99008B   21292.72902201  .00000085  00000-0  28036-4 0  9992
2 25635  96.4790 208.5476 0137140 228.9668 129.9611 14.48329083195700
PHASE 3D (AO-40)        
1 26609U 00072B   21292.32193277 -.00000344  00000-0  00000-0 0  9994
2 26609   8.9326 307.2748 7963560 300.8493   4.3936  1.25588011 96121
PCSAT (NO-44)           
1 26931U 01043C   21292.40816380  .00000008  00000-0  34741-4 0  9996
2 26931  67.0512 320.5336 0005620 273.2919  86.7539 14.30637726 46920
SAUDISAT 1C (SO-50)     
1 27607U 02058C   21292.51271528  .00000131  00000-0  39216-4 0  9994
2 27607  64.5551 318.9614 0056139 345.3898  14.5579 14.75805619 12815
CUTE-1 (CO-55)          
1 27844U 03031E   21292.56858726  .00000091  00000-0  60530-4 0  9993
2 27844  98.6821 298.9070 0010969  80.7731 279.4687 14.22341176949665
CUBESAT XI-IV (CO-57)   
1 27848U 03031J   21292.24699781  .00000086  00000-0  58500-4 0  9994
2 27848  98.6875 299.1461 0010879  93.8901 266.3521 14.21914065949405
MOZHAYETS 4 (RS-22)     
1 27939U 03042A   21292.72239927  .00000261  00000-0  55300-4 0  9992
2 27939  98.1583  69.0788 0011773 245.2714 114.7267 14.67041280965740
INMARSAT 4-F1           
1 28628U 05009A   21292.47288362 -.00000266  00000-0  00000-0 0  9991
2 28628   3.4448  32.4070 0003032 178.0736 131.4444  1.00272873 60600
NOAA 18                 
1 28654U 05018A   21292.75125970  .00000108  00000-0  82657-4 0  9992
2 28654  98.9814 358.0336 0013276 292.5528  67.4238 14.12648018846087
CUBESAT XI-V            
1 28895U 05043F   21292.61664469  .00000262  00000-0  58913-4 0  9992
2 28895  98.0765  63.2679 0016911 175.2340 184.9027 14.63981624852406
METOP-A                 
1 29499U 06044A   21292.71395840  .00000023  00000-0  29370-4 0  9990
2 29499  98.4599 326.9484 0000623  83.3809  25.2227 14.21514012778392
CARTOSAT-2 (IRS-P7)     
1 29710U 07001B   21292.77885214  .00007614  00000-0  22675-3 0  9998
2 29710  97.8710  20.9267 0167629 175.8481 184.4192 15.22227386799556
FALCONSAT-3             
1 30776U 07006E   21292.52372861  .00009080  00000-0  20590-3 0  9992
2 30776  35.4351  22.0503 0002383 312.8295  47.2233 15.42340655812269
CAPE-1                  
1 31130U 07012P   21292.79046235  .00000312  00000-0  76602-4 0  9991
2 31130  98.2422 230.4645 0095022 319.6912  39.7268 14.56754918770043
CARTOSAT-2A             
1 32783U 08021A   21292.71622647 -.00000070  00000-0 -24094-5 0  9998
2 32783  97.9927 350.0242 0011772 219.5827 140.4526 14.78632033727449
CUTE-1.7+APD II (CO-65) 
1 32785U 08021C   21292.80653624  .00000559  00000-0  65262-4 0  9990
2 32785  97.6263 266.9222 0011861 316.7777  43.2509 14.88846094730740
COMPASS-1               
1 32787U 08021E   21292.75019188  .00000661  00000-0  66501-4 0  9998
2 32787  97.5405 278.6735 0010910 228.9068 131.1212 14.94357708732149
AAUSAT-II               
1 32788U 08021F   21292.45479694  .00001760  00000-0  16232-3 0  9994
2 32788  97.5147 281.9878 0010723 205.9921 154.0764 14.95846102732499
DELFI-C3 (DO-64)        
1 32789U 08021G   21292.65910697  .00002767  00000-0  17553-3 0  9995
2 32789  97.3663 323.2212 0013156  78.1089 282.1615 15.09628014735667
SEEDS II (CO-66)        
1 32791U 08021J   21292.74478292  .00000754  00000-0  80443-4 0  9991
2 32791  97.5847 272.6446 0011519 273.3784  86.6117 14.91584719731386
YUBILEINY (RS-30)       
1 32953U 08025A   21292.73521039  .00000021  00000-0  80971-4 0  9995
2 32953  82.5052 333.6446 0020597  68.3428 291.9842 12.43105061608427
FENGYUN 3A              
1 32958U 08026A   21292.75778184  .00000008  00000-0  23978-4 0  9997
2 32958  98.4670 260.7108 0008909   7.1290 353.0012 14.18671901694205
PRISM (HITOMI)          
1 33493U 09002B   21292.65382605  .00001544  00000-0  13622-3 0  9995
2 33493  98.2032 261.2979 0013830 231.8005 128.1971 14.97963102692927
STARS (KUKAI)           
1 33498U 09002G   21292.64474953  .00000416  00000-0  63141-4 0  9996
2 33498  98.1939 175.2566 0009962 312.5968  47.4402 14.79449510686241
KKS-1 (KISEKI)          
1 33499U 09002H   21292.48834254  .00000211  00000-0  38680-4 0  9996
2 33499  98.2479 165.0955 0009391  13.3336 346.8119 14.75716238684702
NOAA 19                 
1 33591U 09005A   21292.72652737  .00000059  00000-0  57325-4 0  9990
2 33591  99.1768 316.4739 0014550 141.1098 219.1122 14.12501897654466
SWISSCUBE               
1 35932U 09051B   21292.14310474  .00000246  00000-0  66281-4 0  9996
2 35932  98.5921 136.0085 0008658  70.4531 289.7600 14.56596042640967
BEESAT-1                
1 35933U 09051C   21292.51632093  .00000189  00000-0  53403-4 0  9990
2 35933  98.5873 138.1611 0006896  80.9490 279.2487 14.56646222641092
ITUPSAT1                
1 35935U 09051E   21292.80074943  .00000174  00000-0  50925-4 0  9998
2 35935  98.5976 138.5664 0009232  81.5357 278.6886 14.55773844640899
XIWANG-1 (HOPE-1)       
1 36122U 09072B   21292.41578582 -.00000020  00000-0  60619-4 0  9997
2 36122 100.1487 268.0191 0007487 171.2280 188.8966 13.16363347569093
CARTOSAT-2B             
1 36795U 10035A   21292.61917646  .00000187  00000-0  32707-4 0  9994
2 36795  97.9868 350.1672 0012704 306.2718  53.7317 14.78646311608476
TISAT 1                 
1 36799U 10035E   21292.13406785  .00000684  00000-0  73676-4 0  9994
2 36799  98.2009 127.9600 0012310 162.3116 197.8532 14.91913390611773
FENGYUN 3B              
1 37214U 10059A   21292.75263810  .00000026  00000-0  36589-4 0  9993
2 37214  99.0883 289.2875 0016509 325.1494  34.8591 14.16002662566922
JUGNU                   
1 37839U 11058B   21292.43584624  .00000333  00000-0  35955-4 0  9997
2 37839  19.9600 197.2692 0018854  19.8330 137.2750 14.12729711518120
SRMSAT                  
1 37841U 11058D   21292.64994046  .00000321  00000-0  31316-4 0  9990
2 37841  19.9720 270.4245 0011761 217.4155 298.9434 14.10707713517427
M-CUBED & EXP-1 PRIME   
1 37855U 11061F   21292.76104760  .00004232  00000-0  20560-3 0  9991
2 37855 101.7225 280.7557 0164991  60.7939 300.9664 15.08370023545388
HORYU-2                 
1 38340U 12025D   21292.73851720  .00000372  00000-0  61623-4 0  9991
2 38340  98.2214   2.3443 0010173 278.5890  81.4166 14.76132874507138
METOP-B                 
1 38771U 12049A   21292.76735698  .00000014  00000-0  26581-4 0  9990
2 38771  98.7012 351.1872 0001641  56.3882  51.9390 14.21488767471531
SARAL                   
1 39086U 13009A   21292.54835841  .00000008  00000-0  19164-4 0  9996
2 39086  98.5467 116.7552 0000337 131.4412 228.6801 14.32063991452009
AAUSAT 3                
1 39087U 13009B   21292.47798628  .00000190  00000-0  80179-4 0  9996
2 39087  98.4149 132.9136 0011582 266.3497  93.6367 14.35984046452990
STRAND-1                
1 39090U 13009E   21292.50434457  .00000068  00000-0  38796-4 0  9993
2 39090  98.4178 131.7319 0007998 270.0108  90.0161 14.35192151452837
BRITE-AUSTRIA           
1 39091U 13009F   21292.41770430  .00000021  00000-0  22275-4 0  9992
2 39091  98.4187 130.7917 0009348 277.5775  82.4349 14.35205772452864
UNIBRITE                
1 39092U 13009G   21292.27831326  .00000030  00000-0  25406-4 0  9998
2 39092  98.4217 130.3786 0008231 272.4124  87.6119 14.35076812452796
SOMP                    
1 39134U 13015E   21292.75317652  .00003513  00000-0  15495-3 0  9991
2 39134  64.8618 128.0351 0020763 314.3667  45.5760 15.23370866470529
BEESAT-3                
1 39135U 13015F   21292.36319920  .00003194  00000-0  15629-3 0  9993
2 39135  64.8668 160.5814 0018429 329.7609  30.2453 15.19997982469439
BEESAT-2                
1 39136U 13015G   21292.15189731  .00002818  00000-0  14188-3 0  9997
2 39136  64.8756 168.1856 0016250 242.5011 117.4465 15.19300388469223
NEE-01 PEGASO           
1 39151U 13018B   21292.25162382  .00000401  00000-0  59404-4 0  9998
2 39151  97.9848  34.0234 0015996 320.5590  39.4456 14.80434725457999
CUBEBUG-1 (CAPITAN BETO)
1 39153U 13018D   21292.55786936  .00000430  00000-0  62366-4 0  9993
2 39153  98.0017  37.9375 0015768 314.2526  45.7391 14.81030371458174
